ONEWEB-0412
1 50489U 21132W   24100.80751352 -.00000122  00000-0 -34257-3 0  9994
2 50489  87.9148 134.3904 0001788  79.9401 280.1933 13.18690265117717
ONEWEB-0413
1 50490U 21132X   24100.81226111  .00000076  00000-0  15937-3 0  9997
2 50490  87.9147 134.4028 0001629  88.0950 272.0368 13.18684979117661
ONEWEB-0414
1 50491U 21132Y   24100.11513162  .00000132  00000-0  30304-3 0  9994
2 50491  87.9142 134.5225 0002039  84.0220 276.1144 13.18686344116315
ONEWEB-0417
1 50492U 21132Z   24100.35068309  .00000040  00000-0  68232-4 0  9999
2 50492  87.9149 134.4738 0002359  94.6175 265.5227 13.18685130116329
ONEWEB-0418
1 50493U 21132AA  24100.81528189  .00000093  00000-0  20261-3 0  9995
2 50493  87.9144 134.3871 0002580  91.8038 268.3390 13.18684807117722
ONEWEB-0419
1 50494U 21132AB  24100.37755092  .00000102  00000-0  22719-3 0  9993
2 50494  87.9143 134.4940 0002392  99.8178 260.3224 13.18685651116303
ONEWEB-0420
1 50495U 21132AC  24100.79960155  .00000072  00000-0  14911-3 0  9999
2 50495  87.9140 134.4185 0001652  96.7605 263.3715 13.18688113117654
ONEWEB-0421
1 50496U 21132AD  24100.33803901  .00000024  00000-0  28861-4 0  9992
2 50496  87.9151 134.4707 0001950  81.8443 278.2910 13.18686936116330
